IRIDIUM 171             
1 43929U 19002H   24301.80327448  .00001027  00000+0  35977-3 0  9998
2 43929  86.3978 243.4115 0002401  74.6447 285.5014 14.34217775303337
IRIDIUM 170             
1 43930U 19002J   24301.93293930  .00005090  00000+0  80252-3 0  9992
2 43930  86.6095 243.1530 0002185  82.0362 278.1103 14.72271461311383
IRIDIUM 167             
1 43931U 19002K   24301.79691989  .00000944  00000+0  32984-3 0  9995
2 43931  86.3970 243.1909 0002396  78.7550 281.3915 14.34229741303333
IRIDIUM 181             
1 56726U 23068S   24301.57118816  .00000650  00000+0  18630-3 0  9993
2 56726  86.8582 303.4812 0002522  82.5641 277.5847 14.43575112 76234
IRIDIUM 177             
1 56727U 23068T   24301.85958970  .00006991  00000+0  91588-3 0  9995
2 56727  86.1952 252.3364 0003263  89.4767 270.6828 14.80236855 78000
IRIDIUM 174             
1 56728U 23068U   24301.92174351  .00007011  00000+0  91817-3 0  9996
2 56728  86.1961 252.4211 0002976  81.7658 278.3900 14.80254212 78011
IRIDIUM 178             
1 56729U 23068V   24301.44311317  .00005959  00000+0  78052-3 0  9994
2 56729  86.5728 276.3877 0002824  90.1910 269.9635 14.80228886 77947
